ONEWEB-0435             
1 51632U 22012L   26110.24022770 -.00000521  00000+0 -15297-2 0  9993
2 51632  87.8855  47.8089 0002188  77.1276 283.0096 13.10373168201728
ONEWEB-0436             
1 51633U 22012M   26110.19698201  .00000097  00000+0  21564-3 0  9997
2 51633  87.9193  17.3622 0002002  75.4893 284.6460 13.17650672206048
ONEWEB-0438             
1 51634U 22012N   26110.22363950 -.00000132  00000+0 -41380-3 0  9992
2 51634  87.8835  47.8141 0001768  83.6888 276.4441 13.10369881201751
ONEWEB-0439             
1 51635U 22012P   26110.07425092 -.00000473  00000+0 -13909-2 0  9995
2 51635  87.8837  47.8322 0001969  82.3004 277.8347 13.10370060201711
ONEWEB-0442             
1 51636U 22012Q   26110.18938247  .00000116  00000+0  26518-3 0  9992
2 51636  87.9186  17.3999 0001423  95.4085 264.7209 13.17647766206030
ONEWEB-0443             
1 51637U 22012R   26110.20878722  .00000167  00000+0  39752-3 0  9997
2 51637  87.9189  17.3981 0002089  87.6356 272.5015 13.17648979206082
ONEWEB-0444             
1 51638U 22012S   26110.06432428 -.00001923  00000+0 -55483-2 0  9992
2 51638  87.8848  47.8330 0001800  84.3865 275.7467 13.10351112201724
ONEWEB-0445             
1 51639U 22012T   26110.23859344 -.00000410  00000+0 -12097-2 0  9996
2 51639  87.8867  47.7808 0001803  72.7570 287.3755 13.10375242201754
ONEWEB-0446             
1 51640U 22012U   26110.21535378  .00000294  00000+0  80556-3 0  9998
2 51640  87.8838  47.8191 0001777  76.1023 284.0302 13.10370366201733
ONEWEB-0448             
1 51641U 22012V   26110.29669492 -.00000122  00000+0 -38595-3 0  9990
2 51641  87.8869  47.8011 0002053  82.5734 277.5627 13.10372523201719
ONEWEB-0449             
1 51642U 22012W   26110.07258433 -.00000438  00000+0 -12911-2 0  9999
2 51642  87.8846  47.8275 0001722  93.5579 266.5746 13.10369444201693
ONEWEB-0451             
1 51643U 22012X   26110.19361628  .00000144  00000+0  33839-3 0  9999
2 51643  87.9197  17.3588 0001737  86.3356 273.7974 13.17649331206020
ONEWEB-0452             
1 51644U 22012Y   26110.19191265  .00000099  00000+0  22184-3 0  9998
2 51644  87.9186  17.4014 0001906  88.0447 272.0903 13.17649563206034
ONEWEB-0456             
1 51646U 22012AA  26110.08254641 -.00000767  00000+0 -22331-2 0  9993
2 51646  87.8859  47.8080 0002021  77.9397 282.1957 13.10372404201735
ONEWEB-0457             
1 51647U 22012AB  26110.05932139  .00000264  00000+0  72078-3 0  9990
2 51647  87.8839  47.8378 0001468  77.5692 282.5600 13.10368729201736
ONEWEB-0458             
1 51648U 22012AC  26110.08088658 -.00000674  00000+0 -19677-2 0  9994
2 51648  87.8878  47.8160 0001949  84.8679 275.2671 13.10372436201691
