[{"OBJECT_NAME":"ONEWEB-0435","OBJECT_ID":"2022-012L","EPOCH":"2026-04-20T05:45:55.673280","MEAN_MOTION":13.10373168,"ECCENTRICITY":0.0002188,"INCLINATION":87.8855,"RA_OF_ASC_NODE":47.8089,"ARG_OF_PERICENTER":77.1276,"MEAN_ANOMALY":283.0096,"EPHEMERIS_TYPE":0,"CLASSIFICATION_TYPE":"U","NORAD_CAT_ID":51632,"ELEMENT_SET_NO":999,"REV_AT_EPOCH":20172,"BSTAR":-0.0015297,"MEAN_MOTION_DOT":-5.21e-06,"MEAN_MOTION_DDOT":0.0},{"OBJECT_NAME":"ONEWEB-0436","OBJECT_ID":"2022-012M","EPOCH":"2026-04-20T04:43:39.245664","MEAN_MOTION":13.17650672,"ECCENTRICITY":0.0002002,"INCLINATION":87.9193,"RA_OF_ASC_NODE":17.3622,"ARG_OF_PERICENTER":75.4893,"MEAN_ANOMALY":284.646,"EPHEMERIS_TYPE":0,"CLASSIFICATION_TYPE":"U","NORAD_CAT_ID":51633,"ELEMENT_SET_NO":999,"REV_AT_EPOCH":20604,"BSTAR":0.00021564000000000002,"MEAN_MOTION_DOT":9.7e-07,"MEAN_MOTION_DDOT":0.0},{"OBJECT_NAME":"ONEWEB-0438","OBJECT_ID":"2022-012N","EPOCH":"2026-04-20T05:22:02.452800","MEAN_MOTION":13.10369881,"ECCENTRICITY":0.0001768,"INCLINATION":87.8835,"RA_OF_ASC_NODE":47.8141,"ARG_OF_PERICENTER":83.6888,"MEAN_ANOMALY":276.4441,"EPHEMERIS_TYPE":0,"CLASSIFICATION_TYPE":"U","NORAD_CAT_ID":51634,"ELEMENT_SET_NO":999,"REV_AT_EPOCH":20175,"BSTAR":-0.00041380000000000003,"MEAN_MOTION_DOT":-1.32e-06,"MEAN_MOTION_DDOT":0.0},{"OBJECT_NAME":"ONEWEB-0439","OBJECT_ID":"2022-012P","EPOCH":"2026-04-20T01:46:55.279488","MEAN_MOTION":13.1037006,"ECCENTRICITY":0.0001969,"INCLINATION":87.8837,"RA_OF_ASC_NODE":47.8322,"ARG_OF_PERICENTER":82.3004,"MEAN_ANOMALY":277.8347,"EPHEMERIS_TYPE":0,"CLASSIFICATION_TYPE":"U","NORAD_CAT_ID":51635,"ELEMENT_SET_NO":999,"REV_AT_EPOCH":20171,"BSTAR":-0.0013909,"MEAN_MOTION_DOT":-4.73e-06,"MEAN_MOTION_DDOT":0.0},{"OBJECT_NAME":"ONEWEB-0442","OBJECT_ID":"2022-012Q","EPOCH":"2026-04-20T04:32:42.645408","MEAN_MOTION":13.17647766,"ECCENTRICITY":0.0001423,"INCLINATION":87.9186,"RA_OF_ASC_NODE":17.3999,"ARG_OF_PERICENTER":95.4085,"MEAN_ANOMALY":264.7209,"EPHEMERIS_TYPE":0,"CLASSIFICATION_TYPE":"U","NORAD_CAT_ID":51636,"ELEMENT_SET_NO":999,"REV_AT_EPOCH":20603,"BSTAR":0.00026518,"MEAN_MOTION_DOT":1.16e-06,"MEAN_MOTION_DDOT":0.0},{"OBJECT_NAME":"ONEWEB-0443","OBJECT_ID":"2022-012R","EPOCH":"2026-04-20T05:00:39.215808","MEAN_MOTION":13.17648979,"ECCENTRICITY":0.0002089,"INCLINATION":87.9189,"RA_OF_ASC_NODE":17.3981,"ARG_OF_PERICENTER":87.6356,"MEAN_ANOMALY":272.5015,"EPHEMERIS_TYPE":0,"CLASSIFICATION_TYPE":"U","NORAD_CAT_ID":51637,"ELEMENT_SET_NO":999,"REV_AT_EPOCH":20608,"BSTAR":0.00039752,"MEAN_MOTION_DOT":1.67e-06,"MEAN_MOTION_DDOT":0.0},{"OBJECT_NAME":"ONEWEB-0444","OBJECT_ID":"2022-012S","EPOCH":"2026-04-20T01:32:37.617792","MEAN_MOTION":13.10351112,"ECCENTRICITY":0.00018,"INCLINATION":87.8848,"RA_OF_ASC_NODE":47.833,"ARG_OF_PERICENTER":84.3865,"MEAN_ANOMALY":275.7467,"EPHEMERIS_TYPE":0,"CLASSIFICATION_TYPE":"U","NORAD_CAT_ID":51638,"ELEMENT_SET_NO":999,"REV_AT_EPOCH":20172,"BSTAR":-0.005548300000000001,"MEAN_MOTION_DOT":-1.923e-05,"MEAN_MOTION_DDOT":0.0},{"OBJECT_NAME":"ONEWEB-0445","OBJECT_ID":"2022-012T","EPOCH":"2026-04-20T05:43:34.473216","MEAN_MOTION":13.10375242,"ECCENTRICITY":0.0001803,"INCLINATION":87.8867,"RA_OF_ASC_NODE":47.7808,"ARG_OF_PERICENTER":72.757,"MEAN_ANOMALY":287.3755,"EPHEMERIS_TYPE":0,"CLASSIFICATION_TYPE":"U","NORAD_CAT_ID":51639,"ELEMENT_SET_NO":999,"REV_AT_EPOCH":20175,"BSTAR":-0.0012097,"MEAN_MOTION_DOT":-4.1e-06,"MEAN_MOTION_DDOT":0.0},{"OBJECT_NAME":"ONEWEB-0446","OBJECT_ID":"2022-012U","EPOCH":"2026-04-20T05:10:06.566592","MEAN_MOTION":13.10370366,"ECCENTRICITY":0.0001777,"INCLINATION":87.8838,"RA_OF_ASC_NODE":47.8191,"ARG_OF_PERICENTER":76.1023,"MEAN_ANOMALY":284.0302,"EPHEMERIS_TYPE":0,"CLASSIFICATION_TYPE":"U","NORAD_CAT_ID":51640,"ELEMENT_SET_NO":999,"REV_AT_EPOCH":20173,"BSTAR":0.0008055600000000001,"MEAN_MOTION_DOT":2.94e-06,"MEAN_MOTION_DDOT":0.0},{"OBJECT_NAME":"ONEWEB-0448","OBJECT_ID":"2022-012V","EPOCH":"2026-04-20T07:07:14.441088","MEAN_MOTION":13.10372523,"ECCENTRICITY":0.0002053,"INCLINATION":87.8869,"RA_OF_ASC_NODE":47.8011,"ARG_OF_PERICENTER":82.5734,"MEAN_ANOMALY":277.5627,"EPHEMERIS_TYPE":0,"CLASSIFICATION_TYPE":"U","NORAD_CAT_ID":51641,"ELEMENT_SET_NO":999,"REV_AT_EPOCH":20171,"BSTAR":-0.00038595000000000003,"MEAN_MOTION_DOT":-1.22e-06,"MEAN_MOTION_DDOT":0.0},{"OBJECT_NAME":"ONEWEB-0449","OBJECT_ID":"2022-012W","EPOCH":"2026-04-20T01:44:31.286112","MEAN_MOTION":13.10369444,"ECCENTRICITY":0.0001722,"INCLINATION":87.8846,"RA_OF_ASC_NODE":47.8275,"ARG_OF_PERICENTER":93.5579,"MEAN_ANOMALY":266.5746,"EPHEMERIS_TYPE":0,"CLASSIFICATION_TYPE":"U","NORAD_CAT_ID":51642,"ELEMENT_SET_NO":999,"REV_AT_EPOCH":20169,"BSTAR":-0.0012911,"MEAN_MOTION_DOT":-4.38e-06,"MEAN_MOTION_DDOT":0.0},{"OBJECT_NAME":"ONEWEB-0451","OBJECT_ID":"2022-012X","EPOCH":"2026-04-20T04:38:48.446592","MEAN_MOTION":13.17649331,"ECCENTRICITY":0.0001737,"INCLINATION":87.9197,"RA_OF_ASC_NODE":17.3588,"ARG_OF_PERICENTER":86.3356,"MEAN_ANOMALY":273.7974,"EPHEMERIS_TYPE":0,"CLASSIFICATION_TYPE":"U","NORAD_CAT_ID":51643,"ELEMENT_SET_NO":999,"REV_AT_EPOCH":20602,"BSTAR":0.00033839000000000004,"MEAN_MOTION_DOT":1.44e-06,"MEAN_MOTION_DDOT":0.0},{"OBJECT_NAME":"ONEWEB-0452","OBJECT_ID":"2022-012Y","EPOCH":"2026-04-20T04:36:21.252960","MEAN_MOTION":13.17649563,"ECCENTRICITY":0.0001906,"INCLINATION":87.9186,"RA_OF_ASC_NODE":17.4014,"ARG_OF_PERICENTER":88.0447,"MEAN_ANOMALY":272.0903,"EPHEMERIS_TYPE":0,"CLASSIFICATION_TYPE":"U","NORAD_CAT_ID":51644,"ELEMENT_SET_NO":999,"REV_AT_EPOCH":20603,"BSTAR":0.00022184,"MEAN_MOTION_DOT":9.9e-07,"MEAN_MOTION_DDOT":0.0},{"OBJECT_NAME":"ONEWEB-0456","OBJECT_ID":"2022-012AA","EPOCH":"2026-04-20T01:58:52.009824","MEAN_MOTION":13.10372404,"ECCENTRICITY":0.0002021,"INCLINATION":87.8859,"RA_OF_ASC_NODE":47.808,"ARG_OF_PERICENTER":77.9397,"MEAN_ANOMALY":282.1957,"EPHEMERIS_TYPE":0,"CLASSIFICATION_TYPE":"U","NORAD_CAT_ID":51646,"ELEMENT_SET_NO":999,"REV_AT_EPOCH":20173,"BSTAR":-0.0022331,"MEAN_MOTION_DOT":-7.67e-06,"MEAN_MOTION_DDOT":0.0},{"OBJECT_NAME":"ONEWEB-0457","OBJECT_ID":"2022-012AB","EPOCH":"2026-04-20T01:25:25.368096","MEAN_MOTION":13.10368729,"ECCENTRICITY":0.0001468,"INCLINATION":87.8839,"RA_OF_ASC_NODE":47.8378,"ARG_OF_PERICENTER":77.5692,"MEAN_ANOMALY":282.56,"EPHEMERIS_TYPE":0,"CLASSIFICATION_TYPE":"U","NORAD_CAT_ID":51647,"ELEMENT_SET_NO":999,"REV_AT_EPOCH":20173,"BSTAR":0.00072078,"MEAN_MOTION_DOT":2.64e-06,"MEAN_MOTION_DDOT":0.0},{"OBJECT_NAME":"ONEWEB-0458","OBJECT_ID":"2022-012AC","EPOCH":"2026-04-20T01:56:28.600512","MEAN_MOTION":13.10372436,"ECCENTRICITY":0.0001949,"INCLINATION":87.8878,"RA_OF_ASC_NODE":47.816,"ARG_OF_PERICENTER":84.8679,"MEAN_ANOMALY":275.2671,"EPHEMERIS_TYPE":0,"CLASSIFICATION_TYPE":"U","NORAD_CAT_ID":51648,"ELEMENT_SET_NO":999,"REV_AT_EPOCH":20169,"BSTAR":-0.0019677,"MEAN_MOTION_DOT":-6.74e-06,"MEAN_MOTION_DDOT":0.0}]